ONEWEB-0012             
1 44057U 19010A   23237.60972749  .00000082  00000+0  18202-3 0  9997
2 44057  87.8989  73.1483 0002096 117.4817 242.6527 13.16593377216487
ONEWEB-0010             
1 44058U 19010B   23237.55906104  .00000054  00000+0  10647-3 0  9998
2 44058  87.8984  73.1449 0002337  93.6431 266.4967 13.16596403216520
ONEWEB-0008             
1 44059U 19010C   23237.58439934  .00000013  00000+0  96045-6 0  9998
2 44059  87.8988  73.1317 0001537  79.9127 280.2177 13.16594786216641
ONEWEB-0007             
1 44060U 19010D   23237.56484017 -.00000018  00000+0 -82840-4 0  9993
2 44060  87.8970 103.6161 0001786  96.3192 263.8142 13.15545907216392
ONEWEB-0006             
1 44061U 19010E   23237.55216915  .00000131  00000+0  31298-3 0  9997
2 44061  87.8972 103.6217 0001985  92.8176 267.3181 13.15549383216441
ONEWEB-0011             
1 44062U 19010F   23237.53950347  .00000151  00000+0  36650-3 0  9999
2 44062  87.8974 103.6243 0001422  81.0217 279.1074 13.15547071216438
ONEWEB-0013             
1 45131U 20008A   23237.55055786 -.00000745  00000+0 -22022-2 0  9999
2 45131  87.9094 258.7063 0001280 122.1888 237.9363 13.09383042171718
ONEWEB-0017             
1 45132U 20008B   23237.52664022  .00000445  00000+0  12382-2 0  9999
2 45132  87.8808 240.1583 0002200  90.3516 269.7863 13.10377329173498
